[{"OBJECT_NAME":"STARLINK-1651","OBJECT_ID":"2020-062AT","EPOCH":"2026-03-02T21:34:30.042048","MEAN_MOTION":16.42914037,"ECCENTRICITY":0.00064168,"INCLINATION":53.0202,"RA_OF_ASC_NODE":299.8381,"ARG_OF_PERICENTER":248.9983,"MEAN_ANOMALY":111.0378,"EPHEMERIS_TYPE":0,"CLASSIFICATION_TYPE":"U","NORAD_CAT_ID":46366,"ELEMENT_SET_NO":999,"REV_AT_EPOCH":30478,"BSTAR":0.00052075545,"MEAN_MOTION_DOT":0.11338563,"MEAN_MOTION_DDOT":1.2404903e-5},{"OBJECT_NAME":"STARLINK-1687","OBJECT_ID":"2020-070K","EPOCH":"2026-03-03T16:14:31.358976","MEAN_MOTION":16.18037846,"ECCENTRICITY":0.0010065,"INCLINATION":53.0287,"RA_OF_ASC_NODE":121.496,"ARG_OF_PERICENTER":4.2049,"MEAN_ANOMALY":355.9071,"EPHEMERIS_TYPE":0,"CLASSIFICATION_TYPE":"U","NORAD_CAT_ID":46541,"ELEMENT_SET_NO":999,"REV_AT_EPOCH":29974,"BSTAR":0.0013682,"MEAN_MOTION_DOT":0.02360534,"MEAN_MOTION_DDOT":1.1789e-5},{"OBJECT_NAME":"STARLINK-1712","OBJECT_ID":"2020-070BB","EPOCH":"2026-03-03T12:00:00.998784","MEAN_MOTION":15.95001739,"ECCENTRICITY":0.0007012,"INCLINATION":53.0307,"RA_OF_ASC_NODE":112.2308,"ARG_OF_PERICENTER":339.2217,"MEAN_ANOMALY":146.3203,"EPHEMERIS_TYPE":0,"CLASSIFICATION_TYPE":"U","NORAD_CAT_ID":46581,"ELEMENT_SET_NO":999,"REV_AT_EPOCH":586,"BSTAR":0.0013188,"MEAN_MOTION_DOT":0.0052284,"MEAN_MOTION_DDOT":0.00012226},{"OBJECT_NAME":"STARLINK-1848","OBJECT_ID":"2020-074B","EPOCH":"2026-03-03T17:45:34.081920","MEAN_MOTION":16.33477688,"ECCENTRICITY":0.0007072,"INCLINATION":53.0211,"RA_OF_ASC_NODE":281.1611,"ARG_OF_PERICENTER":257.1429,"MEAN_ANOMALY":102.8824,"EPHEMERIS_TYPE":0,"CLASSIFICATION_TYPE":"U","NORAD_CAT_ID":46740,"ELEMENT_SET_NO":999,"REV_AT_EPOCH":29671,"BSTAR":0.00091114,"MEAN_MOTION_DOT":0.06059153,"MEAN_MOTION_DDOT":1.2163e-5},{"OBJECT_NAME":"STARLINK-1955","OBJECT_ID":"2021-009J","EPOCH":"2026-03-03T12:00:00.998784","MEAN_MOTION":15.91944078,"ECCENTRICITY":0.0003273,"INCLINATION":53.0356,"RA_OF_ASC_NODE":356.8055,"ARG_OF_PERICENTER":118.6308,"MEAN_ANOMALY":199.713,"EPHEMERIS_TYPE":0,"CLASSIFICATION_TYPE":"U","NORAD_CAT_ID":47556,"ELEMENT_SET_NO":999,"REV_AT_EPOCH":602,"BSTAR":0.0011892,"MEAN_MOTION_DOT":0.00399732,"MEAN_MOTION_DDOT":7.2147e-5},{"OBJECT_NAME":"WILDTRACKCUBE-SIMBA","OBJECT_ID":"2021-022K","EPOCH":"2026-03-03T16:58:45.173856","MEAN_MOTION":16.17333637,"ECCENTRICITY":0.0006326,"INCLINATION":97.38,"RA_OF_ASC_NODE":344.5224,"ARG_OF_PERICENTER":129.3367,"MEAN_ANOMALY":230.8482,"EPHEMERIS_TYPE":0,"CLASSIFICATION_TYPE":"U","NORAD_CAT_ID":47941,"ELEMENT_SET_NO":999,"REV_AT_EPOCH":27488,"BSTAR":0.0013982,"MEAN_MOTION_DOT":0.02157101,"MEAN_MOTION_DDOT":2.4067e-6},{"OBJECT_NAME":"JILIN-1 GAOFEN 3D02","OBJECT_ID":"2021-061C","EPOCH":"2026-03-03T11:20:02.076864","MEAN_MOTION":16.11632387,"ECCENTRICITY":0.000463,"INCLINATION":97.2918,"RA_OF_ASC_NODE":142.9573,"ARG_OF_PERICENTER":245.6399,"MEAN_ANOMALY":114.4403,"EPHEMERIS_TYPE":0,"CLASSIFICATION_TYPE":"U","NORAD_CAT_ID":49005,"ELEMENT_SET_NO":999,"REV_AT_EPOCH":25981,"BSTAR":0.0011847,"MEAN_MOTION_DOT":0.01205113,"MEAN_MOTION_DDOT":0.00095741},{"OBJECT_NAME":"STARLINK-3269","OBJECT_ID":"2021-125AQ","EPOCH":"2026-03-03T15:24:58.443840","MEAN_MOTION":16.16349,"ECCENTRICITY":0.0010764,"INCLINATION":53.1988,"RA_OF_ASC_NODE":161.4362,"ARG_OF_PERICENTER":338.865,"MEAN_ANOMALY":21.1942,"EPHEMERIS_TYPE":0,"CLASSIFICATION_TYPE":"U","NORAD_CAT_ID":50194,"ELEMENT_SET_NO":999,"REV_AT_EPOCH":23735,"BSTAR":0.0017043,"MEAN_MOTION_DOT":0.02287542,"MEAN_MOTION_DDOT":0.0069571},{"OBJECT_NAME":"LYNK TOWER 1","OBJECT_ID":"2022-033F","EPOCH":"2026-03-03T06:52:03.714240","MEAN_MOTION":16.08604491,"ECCENTRICITY":0.0006177,"INCLINATION":97.2544,"RA_OF_ASC_NODE":167.4063,"ARG_OF_PERICENTER":197.959,"MEAN_ANOMALY":162.1475,"EPHEMERIS_TYPE":0,"CLASSIFICATION_TYPE":"U","NORAD_CAT_ID":52162,"ELEMENT_SET_NO":999,"REV_AT_EPOCH":22021,"BSTAR":0.00073148,"MEAN_MOTION_DOT":0.00620099,"MEAN_MOTION_DDOT":0.00019984},{"OBJECT_NAME":"STARLINK-3767","OBJECT_ID":"2022-045AX","EPOCH":"2026-03-03T12:00:00.998784","MEAN_MOTION":15.97668881,"ECCENTRICITY":0.0001143,"INCLINATION":53.2123,"RA_OF_ASC_NODE":203.9628,"ARG_OF_PERICENTER":61.081,"MEAN_ANOMALY":279.947,"EPHEMERIS_TYPE":0,"CLASSIFICATION_TYPE":"U","NORAD_CAT_ID":52376,"ELEMENT_SET_NO":999,"REV_AT_EPOCH":584,"BSTAR":0.0026063,"MEAN_MOTION_DOT":0.01186458,"MEAN_MOTION_DDOT":0.00070573},{"OBJECT_NAME":"NUSAT-28 (ALICE LEE)","OBJECT_ID":"2022-057R","EPOCH":"2026-03-03T12:18:39.896064","MEAN_MOTION":15.95610514,"ECCENTRICITY":0.0006884,"INCLINATION":97.4987,"RA_OF_ASC_NODE":211.7205,"ARG_OF_PERICENTER":289.4939,"MEAN_ANOMALY":70.5592,"EPHEMERIS_TYPE":0,"CLASSIFICATION_TYPE":"U","NORAD_CAT_ID":52747,"ELEMENT_SET_NO":999,"REV_AT_EPOCH":21106,"BSTAR":0.0011985,"MEAN_MOTION_DOT":0.00476896,"MEAN_MOTION_DDOT":9.463e-5},{"OBJECT_NAME":"STARLINK-6284","OBJECT_ID":"2023-061AF","EPOCH":"2026-03-03T14:43:36.321312","MEAN_MOTION":16.28985642,"ECCENTRICITY":0.0005427,"INCLINATION":42.9906,"RA_OF_ASC_NODE":174.6579,"ARG_OF_PERICENTER":312.8642,"MEAN_ANOMALY":47.1791,"EPHEMERIS_TYPE":0,"CLASSIFICATION_TYPE":"U","NORAD_CAT_ID":56403,"ELEMENT_SET_NO":999,"REV_AT_EPOCH":15648,"BSTAR":0.00052654,"MEAN_MOTION_DOT":0.02297994,"MEAN_MOTION_DDOT":9.0985e-6},{"OBJECT_NAME":"STARLINK-6201","OBJECT_ID":"2023-064AQ","EPOCH":"2026-03-03T12:00:00.998784","MEAN_MOTION":15.93936796,"ECCENTRICITY":0.0003899,"INCLINATION":69.9973,"RA_OF_ASC_NODE":131.344,"ARG_OF_PERICENTER":279.8232,"MEAN_ANOMALY":232.0655,"EPHEMERIS_TYPE":0,"CLASSIFICATION_TYPE":"U","NORAD_CAT_ID":56486,"ELEMENT_SET_NO":999,"REV_AT_EPOCH":584,"BSTAR":0.0033233,"MEAN_MOTION_DOT":0.01210321,"MEAN_MOTION_DDOT":0.00069376},{"OBJECT_NAME":"SHIYAN-25 (SY-25)","OBJECT_ID":"2023-087A","EPOCH":"2026-03-03T12:41:55.834080","MEAN_MOTION":16.00963176,"ECCENTRICITY":0.0012247,"INCLINATION":96.7156,"RA_OF_ASC_NODE":123.6097,"ARG_OF_PERICENTER":244.1851,"MEAN_ANOMALY":115.8166,"EPHEMERIS_TYPE":0,"CLASSIFICATION_TYPE":"U","NORAD_CAT_ID":57047,"ELEMENT_SET_NO":999,"REV_AT_EPOCH":15790,"BSTAR":0.00022423,"MEAN_MOTION_DOT":0.0012049,"MEAN_MOTION_DDOT":7.8514e-6},{"OBJECT_NAME":"STARLINK-6151","OBJECT_ID":"2023-090T","EPOCH":"2026-03-03T14:54:29.329920","MEAN_MOTION":16.14974535,"ECCENTRICITY":0.0016746,"INCLINATION":42.9696,"RA_OF_ASC_NODE":186.0876,"ARG_OF_PERICENTER":345.5039,"MEAN_ANOMALY":14.5362,"EPHEMERIS_TYPE":0,"CLASSIFICATION_TYPE":"U","NORAD_CAT_ID":57118,"ELEMENT_SET_NO":999,"REV_AT_EPOCH":15090,"BSTAR":0.0010775,"MEAN_MOTION_DOT":0.01488451,"MEAN_MOTION_DDOT":0.0017158},{"OBJECT_NAME":"STARLINK-30210","OBJECT_ID":"2023-096C","EPOCH":"2026-03-03T14:11:58.166880","MEAN_MOTION":16.02385845,"ECCENTRICITY":0.0026376,"INCLINATION":42.9625,"RA_OF_ASC_NODE":173.8486,"ARG_OF_PERICENTER":358.9132,"MEAN_ANOMALY":1.1685,"EPHEMERIS_TYPE":0,"CLASSIFICATION_TYPE":"U","NORAD_CAT_ID":57292,"ELEMENT_SET_NO":999,"REV_AT_EPOCH":14753,"BSTAR":0.0015312,"MEAN_MOTION_DOT":0.00972243,"MEAN_MOTION_DDOT":0.00047959}]
