STARLINK-1651           
1 46366U 20062AT  26061.89895882  .11338563  12405-4  52076-3 0  9996
2 46366  53.0202 299.8381 0006416 248.9983 111.0378 16.42914037304789
STARLINK-1687           
1 46541U 20070K   26062.67675184  .02360534  11789-4  13682-2 0  9994
2 46541  53.0287 121.4960 0010065   4.2049 355.9071 16.18037846299746
STARLINK-1712           
1 46581U 20070BB  26062.50001156  .00522840  12226-3  13188-2 0  9997
2 46581  53.0307 112.2308 0007012 339.2217 146.3203 15.95001739  5866
STARLINK-1848           
1 46740U 20074B   26062.73997780  .06059153  12163-4  91114-3 0  9995
2 46740  53.0211 281.1611 0007072 257.1429 102.8824 16.33477688296714
STARLINK-1955           
1 47556U 21009J   26062.50001156  .00399732  72147-4  11892-2 0  9994
2 47556  53.0356 356.8055 0003273 118.6308 199.7130 15.91944078  6021
WILDTRACKCUBE-SIMBA     
1 47941U 21022K   26062.70746729  .02157101  24067-5  13982-2 0  9996
2 47941  97.3800 344.5224 0006326 129.3367 230.8482 16.17333637274882
JILIN-1 GAOFEN 3D02     
1 49005U 21061C   26062.47224626  .01205113  95741-3  11847-2 0  9992
2 49005  97.2918 142.9573 0004630 245.6399 114.4403 16.11632387259818
STARLINK-3269           
1 50194U 21125AQ  26062.64234310  .02287542  69571-2  17043-2 0  9996
2 50194  53.1988 161.4362 0010764 338.8650  21.1942 16.16349000237358
LYNK TOWER 1            
1 52162U 22033F   26062.28615410  .00620099  19984-3  73148-3 0  9995
2 52162  97.2544 167.4063 0006177 197.9590 162.1475 16.08604491220219
STARLINK-3767           
1 52376U 22045AX  26062.50001156  .01186458  70573-3  26063-2 0  9997
2 52376  53.2123 203.9628 0001143  61.0810 279.9470 15.97668881  5840
NUSAT-28 (ALICE LEE)    
1 52747U 22057R   26062.51296176  .00476896  94630-4  11985-2 0  9996
2 52747  97.4987 211.7205 0006884 289.4939  70.5592 15.95610514211064
STARLINK-6284           
1 56403U 23061AF  26062.61361483  .02297994  90985-5  52654-3 0  9991
2 56403  42.9906 174.6579 0005427 312.8642  47.1791 16.28985642156487
STARLINK-6201           
1 56486U 23064AQ  26062.50001156  .01210321  69376-3  33233-2 0  9998
2 56486  69.9973 131.3440 0003899 279.8232 232.0655 15.93936796  5840
SHIYAN-25 (SY-25)       
1 57047U 23087A   26062.52911845  .00120490  78514-5  22423-3 0  9996
2 57047  96.7156 123.6097 0012247 244.1851 115.8166 16.00963176157907
STARLINK-6151           
1 57118U 23090T   26062.62117280  .01488451  17158-2  10775-2 0  9996
2 57118  42.9696 186.0876 0016746 345.5039  14.5362 16.14974535150900
STARLINK-30210          
1 57292U 23096C   26062.59164545  .00972243  47959-3  15312-2 0  9998
2 57292  42.9625 173.8486 0026376 358.9132   1.1685 16.02385845147530
